start=new Date('2021-11-29T00:00:00.000Z').valueOf();
sats=[{"CLASSIFICATION_TYPE":"U","MEAN_MOTION":"15.06401760","OBJECT_ID":"2020-074BG","APOAPSIS":"548.561","MEAN_ELEMENT_THEORY":"SGP4","PERIOD":"95.592","NORAD_CAT_ID":"46793","OBJECT_TYPE":"PAYLOAD","RCS_SIZE":"LARGE","BSTAR":"0.00010963000000","MEAN_MOTION_DDOT":"0.0000000000000","SITE":"AFETR","ARG_OF_PERICENTER":"86.4419","REF_FRAME":"TEME","PERIAPSIS":"545.856","ELEMENT_SET_NO":"999","GP_ID":"190685134","REV_AT_EPOCH":"6126","TLE_LINE1":"1 46793U 20074BG  21332.84026561  .00001352  00000-0  10963-3 0  9998","DECAY_DATE":null,"FILE":"3226391","MEAN_ANOMALY":"273.6794","RA_OF_ASC_NODE":"133.0335","COUNTRY_CODE":"US","ECCENTRICITY":"0.00019530","MEAN_MOTION_DOT":"0.00001352","LAUNCH_DATE":"2020-10-24","TLE_LINE2":"2 46793  53.0558 133.0335 0001953  86.4419 273.6794 15.06401760 61268","SEMIMAJOR_AXIS":"6925.343","CENTER_NAME":"EARTH","EPHEMERIS_TYPE":"0","EPOCH":"2021-11-28T20:09:58.948704","OBJECT_NAME":"STARLINK-1941","TIME_SYSTEM":"UTC","INCLINATION":"53.0558"},{"NORAD_CAT_ID":"46794","OBJECT_TYPE":"PAYLOAD","CLASSIFICATION_TYPE":"U","OBJECT_ID":"2020-074BH","MEAN_MOTION":"15.06397215","APOAPSIS":"548.508","PERIOD":"95.592","MEAN_ELEMENT_THEORY":"SGP4","GP_ID":"190685384","ELEMENT_SET_NO":"999","REV_AT_EPOCH":"6127","RCS_SIZE":"LARGE","BSTAR":"-0.00005146200000","REF_FRAME":"TEME","MEAN_MOTION_DDOT":"0.0000000000000","SITE":"AFETR","ARG_OF_PERICENTER":"89.8526","PERIAPSIS":"545.936","RA_OF_ASC_NODE":"133.0063","MEAN_ANOMALY":"270.2675","ECCENTRICITY":"0.00018570","COUNTRY_CODE":"US","MEAN_MOTION_DOT":"-0.00001048","LAUNCH_DATE":"2020-10-24","TLE_LINE1":"1 46794U 20074BH  21332.84761080 -.00001048  00000-0 -51462-4 0  9995","DECAY_DATE":null,"FILE":"3226391","CENTER_NAME":"EARTH","EPHEMERIS_TYPE":"0","OBJECT_NAME":"STARLINK-1942","EPOCH":"2021-11-28T20:20:33.573120","INCLINATION":"53.0539","TIME_SYSTEM":"UTC","TLE_LINE2":"2 46794  53.0539 133.0063 0001857  89.8526 270.2675 15.06397215 61276","SEMIMAJOR_AXIS":"6925.357"},{"MEAN_MOTION_DOT":"0.00134890","LAUNCH_DATE":"2020-10-24","ECCENTRICITY":"0.00019490","COUNTRY_CODE":"US","MEAN_ANOMALY":"332.9448","RA_OF_ASC_NODE":"65.6931","FILE":"3226391","DECAY_DATE":null,"TLE_LINE1":"1 46795U 20074BJ  21332.64094527  .00134890  00000-0  49435-3 0  9995","TIME_SYSTEM":"UTC","INCLINATION":"53.0500","EPOCH":"2021-11-28T15:22:57.671328","OBJECT_NAME":"STARLINK-1943","EPHEMERIS_TYPE":"0","CENTER_NAME":"EARTH","SEMIMAJOR_AXIS":"6687.549","TLE_LINE2":"2 46795  53.0500  65.6931 0001949  27.1678 332.9448 15.87458120 62204","OBJECT_TYPE":"PAYLOAD","NORAD_CAT_ID":"46795","PERIOD":"90.711","MEAN_ELEMENT_THEORY":"SGP4","APOAPSIS":"310.718","MEAN_MOTION":"15.87458120","OBJECT_ID":"2020-074BJ","CLASSIFICATION_TYPE":"U","REV_AT_EPOCH":"6220","ELEMENT_SET_NO":"999","GP_ID":"190686635","PERIAPSIS":"308.111","SITE":"AFETR","MEAN_MOTION_DDOT":"0.0000000000000","ARG_OF_PERICENTER":"27.1678","REF_FRAME":"TEME","BSTAR":"0.00049435000000","RCS_SIZE":"LARGE"},{"MEAN_MOTION":"15.06406126","OBJECT_ID":"2020-074BK","CLASSIFICATION_TYPE":"U","PERIOD":"95.592","MEAN_ELEMENT_THEORY":"SGP4","APOAPSIS":"548.346","NORAD_CAT_ID":"46796","OBJECT_TYPE":"PAYLOAD","BSTAR":"0.00012089000000","RCS_SIZE":"LARGE","PERIAPSIS":"546.044","SITE":"AFETR","ARG_OF_PERICENTER":"89.7902","MEAN_MOTION_DDOT":"0.0000000000000","REF_FRAME":"TEME","REV_AT_EPOCH":"6138","ELEMENT_SET_NO":"999","GP_ID":"190686884","DECAY_DATE":null,"TLE_LINE1":"1 46796U 20074BK  21332.69005906  .00001520  00000-0  12089-3 0  9992","FILE":"3226391","MEAN_ANOMALY":"270.3278","RA_OF_ASC_NODE":"123.7056","LAUNCH_DATE":"2020-10-24","MEAN_MOTION_DOT":"0.00001520","COUNTRY_CODE":"US","ECCENTRICITY":"0.00016620","SEMIMAJOR_AXIS":"6925.330","TLE_LINE2":"2 46796  53.0548 123.7056 0001662  89.7902 270.3278 15.06406126 61381","EPHEMERIS_TYPE":"0","CENTER_NAME":"EARTH","TIME_SYSTEM":"UTC","INCLINATION":"53.0548","OBJECT_NAME":"STARLINK-1944","EPOCH":"2021-11-28T16:33:41.102784"},{"OBJECT_TYPE":"PAYLOAD","NORAD_CAT_ID":"46797","APOAPSIS":"398.955","PERIOD":"92.521","MEAN_ELEMENT_THEORY":"SGP4","CLASSIFICATION_TYPE":"U","MEAN_MOTION":"15.56410764","OBJECT_ID":"2020-074BL","ELEMENT_SET_NO":"999","GP_ID":"190685634","REV_AT_EPOCH":"6194","ARG_OF_PERICENTER":"45.3908","SITE":"AFETR","MEAN_MOTION_DDOT":"0.0000000000000","REF_FRAME":"TEME","PERIAPSIS":"397.159","RCS_SIZE":"LARGE","BSTAR":"0.00029266000000","COUNTRY_CODE":"US","ECCENTRICITY":"0.00013250","MEAN_MOTION_DOT":"0.00020607","LAUNCH_DATE":"2020-10-24","MEAN_ANOMALY":"314.7211","RA_OF_ASC_NODE":"84.9691","FILE":"3226391","TLE_LINE1":"1 46797U 20074BL  21332.75160734  .00020607  00000-0  29266-3 0  9993","DECAY_DATE":null,"OBJECT_NAME":"STARLINK-1947","EPOCH":"2021-11-28T18:02:18.874176","TIME_SYSTEM":"UTC","INCLINATION":"53.0558","CENTER_NAME":"EARTH","EPHEMERIS_TYPE":"0","TLE_LINE2":"2 46797  53.0558  84.9691 0001325  45.3908 314.7211 15.56410764 61946","SEMIMAJOR_AXIS":"6776.192"},{"MEAN_ELEMENT_THEORY":"SGP4","PERIOD":"95.592","APOAPSIS":"548.596","MEAN_MOTION":"15.06403515","OBJECT_ID":"2020-074BM","CLASSIFICATION_TYPE":"U","OBJECT_TYPE":"PAYLOAD","NORAD_CAT_ID":"46798","PERIAPSIS":"545.809","MEAN_MOTION_DDOT":"0.0000000000000","SITE":"AFETR","ARG_OF_PERICENTER":"88.9009","REF_FRAME":"TEME","BSTAR":"0.00010553000000","RCS_SIZE":"LARGE","REV_AT_EPOCH":"6107","ELEMENT_SET_NO":"999","GP_ID":"190685884","FILE":"3226391","DECAY_DATE":null,"TLE_LINE1":"1 46798U 20074BM  21332.92084527  .00001291  00000-0  10553-3 0  9995","MEAN_MOTION_DOT":"0.00001291","LAUNCH_DATE":"2020-10-24","COUNTRY_CODE":"US","ECCENTRICITY":"0.00020120","MEAN_ANOMALY":"271.2211","RA_OF_ASC_NODE":"147.6773","SEMIMAJOR_AXIS":"6925.338","TLE_LINE2":"2 46798  53.0531 147.6773 0002012  88.9009 271.2211 15.06403515 61077","TIME_SYSTEM":"UTC","INCLINATION":"53.0531","EPOCH":"2021-11-28T22:06:01.031328","OBJECT_NAME":"STARLINK-1948","EPHEMERIS_TYPE":"0","CENTER_NAME":"EARTH"},{"SEMIMAJOR_AXIS":"6925.362","TLE_LINE2":"2 47122  53.0538 112.8726 0001678  79.4949 280.6229 15.06395764 56436","EPHEMERIS_TYPE":"0","CENTER_NAME":"EARTH","INCLINATION":"53.0538","TIME_SYSTEM":"UTC","EPOCH":"2021-11-28T21:00:22.094208","OBJECT_NAME":"STARLINK-1777","DECAY_DATE":null,"TLE_LINE1":"1 47122U 20088A   21332.87525572 -.00000596  00000-0 -21137-4 0  9996","FILE":"3226391","RA_OF_ASC_NODE":"112.8726","MEAN_ANOMALY":"280.6229","LAUNCH_DATE":"2020-11-25","MEAN_MOTION_DOT":"-0.00000596","COUNTRY_CODE":"US","ECCENTRICITY":"0.00016780","BSTAR":"-0.00002113700000","RCS_SIZE":"LARGE","PERIAPSIS":"546.064","REF_FRAME":"TEME","MEAN_MOTION_DDOT":"0.0000000000000","SITE":"AFETR","ARG_OF_PERICENTER":"79.4949","REV_AT_EPOCH":"5643","GP_ID":"190685922","ELEMENT_SET_NO":"999","OBJECT_ID":"2020-088A","MEAN_MOTION":"15.06395764","CLASSIFICATION_TYPE":"U","PERIOD":"95.592","MEAN_ELEMENT_THEORY":"SGP4","APOAPSIS":"548.389","NORAD_CAT_ID":"47122","OBJECT_TYPE":"PAYLOAD"},{"PERIOD":"95.592","MEAN_ELEMENT_THEORY":"SGP4","APOAPSIS":"548.385","MEAN_MOTION":"15.06398378","OBJECT_ID":"2020-088C","CLASSIFICATION_TYPE":"U","OBJECT_TYPE":"PAYLOAD","NORAD_CAT_ID":"47124","PERIAPSIS":"546.052","MEAN_MOTION_DDOT":"0.0000000000000","SITE":"AFETR","ARG_OF_PERICENTER":"85.4236","REF_FRAME":"TEME","BSTAR":"-0.00001530600000","RCS_SIZE":"LARGE","REV_AT_EPOCH":"5635","ELEMENT_SET_NO":"999","GP_ID":"190686174","FILE":"3226391","DECAY_DATE":null,"TLE_LINE1":"1 47124U 20088C   21332.79460693 -.00000510  00000-0 -15306-4 0  9998","MEAN_MOTION_DOT":"-0.00000510","LAUNCH_DATE":"2020-11-25","ECCENTRICITY":"0.00016850","COUNTRY_CODE":"US","MEAN_ANOMALY":"274.6945","RA_OF_ASC_NODE":"118.2472","SEMIMAJOR_AXIS":"6925.354","TLE_LINE2":"2 47124  53.0535 118.2472 0001685  85.4236 274.6945 15.06398378 56350","TIME_SYSTEM":"UTC","INCLINATION":"53.0535","OBJECT_NAME":"STARLINK-1785","EPOCH":"2021-11-28T19:04:14.038752","EPHEMERIS_TYPE":"0","CENTER_NAME":"EARTH"},{"REV_AT_EPOCH":"5643","ELEMENT_SET_NO":"999","GP_ID":"190686423","PERIAPSIS":"546.126","ARG_OF_PERICENTER":"77.5412","SITE":"AFETR","MEAN_MOTION_DDOT":"0.0000000000000","REF_FRAME":"TEME","BSTAR":"0.00009995400000","RCS_SIZE":"LARGE","OBJECT_TYPE":"PAYLOAD","NORAD_CAT_ID":"47126","PERIOD":"95.592","MEAN_ELEMENT_THEORY":"SGP4","APOAPSIS":"548.316","MEAN_MOTION":"15.06397564","OBJECT_ID":"2020-088E","CLASSIFICATION_TYPE":"U","TIME_SYSTEM":"UTC","INCLINATION":"53.0536","EPOCH":"2021-11-28T20:01:58.167264","OBJECT_NAME":"STARLINK-1812","EPHEMERIS_TYPE":"0","CENTER_NAME":"EARTH","SEMIMAJOR_AXIS":"6925.356","TLE_LINE2":"2 47126  53.0536 113.0601 0001581  77.5412 282.5753 15.06397564 56433","MEAN_MOTION_DOT":"0.00001207","LAUNCH_DATE":"2020-11-25","COUNTRY_CODE":"US","ECCENTRICITY":"0.00015810","MEAN_ANOMALY":"282.5753","RA_OF_ASC_NODE":"113.0601","FILE":"3226391","DECAY_DATE":null,"TLE_LINE1":"1 47126U 20088E   21332.83470101  .00001207  00000-0  99954-4 0  9993"},{"TLE_LINE2":"2 47128  53.0556  93.2385 0002526 216.0087 144.0732 15.06393994 56705","SEMIMAJOR_AXIS":"6925.367","OBJECT_NAME":"STARLINK-1837","EPOCH":"2021-11-28T19:00:55.883808","INCLINATION":"53.0556","TIME_SYSTEM":"UTC","CENTER_NAME":"EARTH","EPHEMERIS_TYPE":"0","FILE":"3226391","TLE_LINE1":"1 47128U 20088G   21332.79231347 -.00000143  00000-0  93483-5 0  9998","DECAY_DATE":null,"COUNTRY_CODE":"US","ECCENTRICITY":"0.00025260","LAUNCH_DATE":"2020-11-25","MEAN_MOTION_DOT":"-0.00000143","RA_OF_ASC_NODE":"93.2385","MEAN_ANOMALY":"144.0732","REF_FRAME":"TEME","SITE":"AFETR","MEAN_MOTION_DDOT":"0.0000000000000","ARG_OF_PERICENTER":"216.0087","PERIAPSIS":"545.483","RCS_SIZE":"LARGE","BSTAR":"0.00000934830000","GP_ID":"190685173","ELEMENT_SET_NO":"999","REV_AT_EPOCH":"5670","APOAPSIS":"548.981","PERIOD":"95.593","MEAN_ELEMENT_THEORY":"SGP4","CLASSIFICATION_TYPE":"U","OBJECT_ID":"2020-088G","MEAN_MOTION":"15.06393994","OBJECT_TYPE":"PAYLOAD","NORAD_CAT_ID":"47128"}];
